1 45401U 20019AT  22365.17388625  .00008654  00000-0  59902-3 0  9995
2 45401  53.0540 324.3486 0002572  48.4973 311.6236 15.06410316154430
1 45401U 20019AT  22365.30657398  .00007045  00000-0  49114-3 0  9993
2 45401  53.0542 323.7531 0001914  40.9482 319.1650 15.06416306154457
1 45401U 20019AT  23001.23543600 -.00007472  00000-0 -48338-3 0  9996
2 45401  53.0540 319.5830 0001973  47.5837 312.5319 15.06389425154597
1 45401U 20019AT  23001.56717132  .00001104  00000-0  93055-4 0  9996
2 45401  53.0538 318.0933 0001940  48.7311 311.3845 15.06386460154649
1 45401U 20019AT  23001.83256407  .00002223  00000-0  16818-3 0  9993
2 45401  53.0539 316.9026 0001966  49.8269 310.2892 15.06380979154685
1 45401U 20019AT  23002.56239105  .00007878  00000-0  54742-3 0  9999
2 45401  53.0537 313.6257 0001992  52.2053 307.9116 15.06382434154793
1 45401U 20019AT  23002.76143146  .00008006  00000-0  55590-3 0  9996
2 45401  53.0537 312.7320 0001944  51.0561 309.0601 15.06389279154822
1 45401U 20019AT  23003.22585781  .00012124  00000-0  83127-3 0  9996
2 45401  53.0535 310.6472 0001985  52.3407 307.7761 15.06405594154891
1 45401U 20019AT  23003.55759119  .00007154  00000-0  49860-3 0  9993
2 45401  53.0534 309.1579 0001992  52.7170 307.4000 15.06406979154947
1 45401U 20019AT  23004.08837030  .00002414  00000-0  18096-3 0  9992
2 45401  53.0535 306.7744 0002022  53.5624 306.5551 15.06395837155024
1 45401U 20019AT  23004.55279163  .00006598  00000-0  46130-3 0  9998
2 45401  53.0544 304.6903 0001982  53.7676 306.3496 15.06412865155095
1 45401U 20019AT  23004.55279163  .00006598  00000-0  46130-3 0  9998
2 45401  53.0544 304.6903 0001982  53.7676 306.3496 15.06412865155095
1 45401U 20019AT  23005.54798121  .00010370  00000-0  71348-3 0  9990
2 45401  53.0541 300.2215 0001851  56.4874 303.6291 15.06428942155248
1 45401U 20019AT  23006.80857511  .00006069  00000-0  42605-3 0  9993
2 45401  53.0535 294.5625 0001791  52.7896 307.3257 15.06396026155438
1 45401U 20019AT  23006.87492195  .00010383  00000-0  71490-3 0  9991
2 45401  53.0537 294.2651 0001793  54.3128 305.8027 15.06400251155449
1 45401U 20019AT  23007.14030846  .00018914  00000-0  12849-2 0  9993
2 45401  53.0538 293.0740 0001773  52.9527 307.1624 15.06410889155481
1 45401U 20019AT  23007.80378528  .00004774  00000-0  33929-3 0  9990
2 45401  53.0535 290.0960 0002636  61.4266 298.6988 15.06391570155586
1 45401U 20019AT  23007.80378528  .00004774  00000-0  33929-3 0  9990
2 45401  53.0535 290.0960 0002636  61.4266 298.6988 15.06391570155586
1 45401U 20019AT  23008.06917620 -.00002248  00000-0 -13208-3 0  9995
2 45401  53.0540 288.9030 0002206  63.4048 296.7166 15.06381552155620
1 45401U 20019AT  23008.46726305 -.00000649  00000-0 -24667-4 0  9992
2 45401  53.0529 287.1157 0002211  61.9910 298.1302 15.06380617155680
1 45401U 20019AT  23008.86533635  .00003942  00000-0  28341-3 0  9997
2 45401  53.0534 285.3302 0001788  57.1207 302.9954 15.06400223155742
1 45401U 20019AT  23009.19707357  .00001244  00000-0  10244-3 0  9994
2 45401  53.0535 283.8415 0001797  55.8344 304.2815 15.06395391155793
1 45401U 20019AT  23009.46245857  .00001724  00000-0  13458-3 0  9999
2 45401  53.0538 282.6503 0001778  56.0110 304.1047 15.06400671155833
1 45401U 20019AT  23010.45766526  .00000944  00000-0  82291-4 0  9996
2 45401  53.0517 278.1833 0001645  55.4840 304.6304 15.06396799155984
1 45401U 20019AT  23010.45766526  .00000944  00000-0  82291-4 0  9996
2 45401  53.0517 278.1833 0001645  55.4840 304.6304 15.06396799155984
1 45401U 20019AT  23010.85575149 -.00000047  00000-0  15760-4 0  9991
2 45401  53.0541 276.3948 0001825  58.5499 301.5668 15.06396999156041
1 45401U 20019AT  23011.51920350  .00002096  00000-0  15951-3 0  9999
2 45401  53.0535 273.4167 0001630  58.7801 301.3347 15.06413210156147
1 45401U 20019AT  23011.51920350  .00002096  00000-0  15951-3 0  9999
2 45401  53.0535 273.4167 0001630  58.7801 301.3347 15.06413210156147
1 45401U 20019AT  23011.85094183  .00002587  00000-0  19247-3 0  9999
2 45401  53.0525 271.9269 0001663  61.7776 298.3381 15.06407646156197
1 45401U 20019AT  23011.98363705  .00002511  00000-0  18740-3 0  9996
2 45401  53.0523 271.3322 0001756  59.6331 300.4831 15.06406679156218
1 45401U 20019AT  23012.71345143  .00001492  00000-0  11905-3 0  9997
2 45401  53.0536 268.0560 0001670  60.8715 299.2441 15.06398705156328
1 45401U 20019AT  23012.91249947  .00000241  00000-0  35116-4 0  9996
2 45401  53.0538 267.1619 0001693  60.1451 299.9706 15.06391127156355
1 45401U 20019AT  23012.97884518 -.00000265  00000-0  11447-5 0  9990
2 45401  53.0543 266.8628 0001746  61.7476 298.3689 15.06394258156362
1 45401U 20019AT  23012.97884518 -.00000265  00000-0  11447-5 0  9990
2 45401  53.0543 266.8628 0001746  61.7476 298.3689 15.06394258156362
1 45401U 20019AT  23013.70866237  .00006527  00000-0  45706-3 0  9999
2 45401  53.0542 263.5866 0001276  66.7675 293.3448 15.06368860156473
1 45401U 20019AT  23013.84134767  .00001248  00000-0  10270-3 0  9993
2 45401  53.0541 262.9907 0001526  64.4149 295.6998 15.06397709156491
1 45401U 20019AT  23014.10672449  .00000159  00000-0  29591-4 0  9994
2 45401  53.0537 261.7997 0001712  61.6417 298.4744 15.06415379156535
1 45401U 20019AT  23014.37213616 -.00001709  00000-0 -95893-4 0  9992
2 45401  53.0532 260.6062 0002040  69.6519 290.4689 15.06387036156579
1 45401U 20019AT  23015.03561360 -.00000333  00000-0 -34935-5 0  9991
2 45401  53.0534 257.6299 0001597  70.9066 289.2096 15.06377660156678
1 45401U 20019AT  23015.36734831 -.00000186  00000-0  64445-5 0  9996
2 45401  53.0530 256.1410 0001532  71.6272 288.4883 15.06382705156726
1 45401U 20019AT  23015.89810862  .00001030  00000-0  88008-4 0  9991
2 45401  53.0543 253.7568 0001258  64.5446 295.5673 15.06404858156805
1 45401U 20019AT  23015.96444432  .00002969  00000-0  21806-3 0  9999
2 45401  53.0529 253.4601 0001143  90.5620 269.5500 15.06416148156816
1 45401U 20019AT  23016.36254044  .00003187  00000-0  23279-3 0  9991
2 45401  53.0530 251.6704 0001716  80.3387 279.7796 15.06394204156879
1 45401U 20019AT  23016.62793804  .00003844  00000-0  27689-3 0  9991
2 45401  53.0522 250.4828 0002099  85.4313 274.6916 15.06390065156918
1 45401U 20019AT  23016.62793804  .00003844  00000-0  27689-3 0  9991
2 45401  53.0522 250.4828 0002099  85.4313 274.6916 15.06390065156918
1 45401U 20019AT  23017.35775317  .00002048  00000-0  15638-3 0  9997
2 45401  53.0517 247.2052 0001353  91.5419 268.5725 15.06394564157023
1 45401U 20019AT  23017.88852240 -.00000391  00000-0 -73812-5 0  9997
2 45401  53.0517 244.8223 0001193 104.1872 255.9250 15.06403852157105
1 45401U 20019AT  23018.02121460  .00000353  00000-0  42595-4 0  9996
2 45401  53.0516 244.2263 0001118  99.6393 260.4722 15.06406388157129
1 45401U 20019AT  23018.35295445 -.00000522  00000-0 -16145-4 0  9999
2 45401  53.0528 242.7372 0001221  98.8333 261.2794 15.06398085157173
1 45401U 20019AT  23018.41930174  .00000864  00000-0  76862-4 0  9990
2 45401  53.0516 242.4391 0001165 104.3176 255.7942 15.06395550157181
1 45401U 20019AT  23018.88373103  .00003336  00000-0  24271-3 0  9997
2 45401  53.0513 240.3540 0001099 101.7018 258.4095 15.06399800157252
1 45401U 20019AT  23019.61355223  .00000096  00000-0  25326-4 0  9995
2 45401  53.0509 237.0782 0001062  92.5200 267.5911 15.06390833157365
1 45401U 20019AT  23019.74624606  .00000006  00000-0  19275-4 0  9990
2 45401  53.0506 236.4805 0001306 106.9967 253.1165 15.06391936157381
1 45401U 20019AT  23020.27702164  .00001233  00000-0  10169-3 0  9991
2 45401  53.0507 234.0998 0001171  81.1596 278.9526 15.06395575157469
1 45401U 20019AT  23020.87414089  .00003297  00000-0  24009-3 0  9993
2 45401  53.0508 231.4189 0001090  84.2712 275.8401 15.06402376157553
1 45401U 20019AT  23021.86934518  .00002080  00000-0  15846-3 0  9995
2 45401  53.0504 226.9513 0001220  91.7127 268.4002 15.06399834157703
1 45401U 20019AT  23023.26262783  .00000388  00000-0  44902-4 0  9994
2 45401  53.0511 220.6955 0001161  84.6231 275.4891 15.06399309157917
1 45401U 20019AT  23024.52321759  .00001393  00000-0  11236-3 0  9993
2 45401  53.0519 215.0363 0001182  88.3707 271.7418 15.06400351158104
1 45401U 20019AT  23025.31937943  .00000970  00000-0  83977-4 0  9991
2 45401  53.0519 211.4620 0001194  85.8126 274.3000 15.06399735158222
1 45401U 20019AT  23025.71746396  .00000661  00000-0  63265-4 0  9990
2 45401  53.0519 209.6749 0001197  86.3927 273.7199 15.06395597158281
1 45401U 20019AT  23025.71746396  .00000661  00000-0  63265-4 0  9990
2 45401  53.0519 209.6749 0001197  86.3927 273.7199 15.06395597158281
1 45401U 20019AT  23025.91650353  .00000740  00000-0  68566-4 0  9996
2 45401  53.0519 208.7812 0001200  86.5453 273.5673 15.06397151158310
1 45401U 20019AT  23026.84535533  .00000722  00000-0  67346-4 0  9996
2 45401  53.0520 204.6108 0001183  87.6336 272.4788 15.06401688158458
1 45401U 20019AT  23027.17709398  .00000099  00000-0  25522-4 0  9992
2 45401  53.0521 203.1206 0001146  89.2685 270.8435 15.06395366158508
1 45401U 20019AT  23027.50883364  .00000182  00000-0  31098-4 0  9993
2 45401  53.0520 201.6318 0001214  82.5229 277.5898 15.06388743158553
1 45401U 20019AT  23027.77421909  .00000622  00000-0  60649-4 0  9998
2 45401  53.0521 200.4403 0001209  86.8772 273.2355 15.06392108158595
1 45401U 20019AT  23028.23864616  .00000336  00000-0  41468-4 0  9996
2 45401  53.0521 198.3557 0001185  86.1779 273.9346 15.06395145158662
1 45401U 20019AT  23028.83576441 -.00000007  00000-0  18394-4 0  9996
2 45401  53.0526 195.6749 0001186  81.7424 278.3700 15.06400729158757
1 45401U 20019AT  23029.43289013  .00000819  00000-0  73861-4 0  9999
2 45401  53.0522 192.9945 0001236  89.4549 270.6581 15.06392629158841
1 45401U 20019AT  23029.69827784  .00000485  00000-0  51473-4 0  9994
2 45401  53.0523 191.8030 0001168  89.8355 270.2767 15.06394077158883
1 45401U 20019AT  23030.56078618  .00000092  00000-0  25051-4 0  9993
2 45401  53.0523 187.9309 0001172  88.1579 271.9544 15.06396664159014
1 45401U 20019AT  23030.56078618  .00000092  00000-0  25051-4 0  9993
2 45401  53.0523 187.9309 0001172  88.1579 271.9544 15.06396664159014
1 45401U 20019AT  23030.82616949 -.00000156  00000-0  84161-5 0  9997
2 45401  53.0522 186.7393 0001184  89.5161 270.5964 15.06403169159052
1 45401U 20019AT  23031.55598890  .00000435  00000-0  48066-4 0  9994
2 45401  53.0525 183.4627 0001128  91.8905 268.2213 15.06394291159167
1 45401U 20019AT  23031.82137225  .00000598  00000-0  59063-4 0  9994
2 45401  53.0528 182.2705 0001138  95.4321 264.6798 15.06399983159203
1 45401U 20019AT  23031.82137225  .00000598  00000-0  59063-4 0  9994
2 45401  53.0528 182.2705 0001138  95.4321 264.6798 15.06399983159203
